CCSDS_OMM_VERS = 2.0
CREATION_DATE  = 
ORIGINATOR     = 

OBJECT_NAME    = STARLINK-36498
OBJECT_ID      = 2026-002P
CENTER_NAME    = EARTH
REF_FRAME      = TEME
TIME_SYSTEM    = UTC
MEAN_ELEMENT_THEORY = SGP/SGP4

EPOCH          = 2026-01-22T22:00:01.999584
MEAN_MOTION    = 15.75041341
ECCENTRICITY   = .00018403
INCLINATION    = 42.9991
RA_OF_ASC_NODE = 227.4681
ARG_OF_PERICENTER = 266.9828
MEAN_ANOMALY   = 182.1678

EPHEMERIS_TYPE = 0
CLASSIFICATION_TYPE = U
NORAD_CAT_ID   = 67318
ELEMENT_SET_NO = 999
REV_AT_EPOCH   = 411
BSTAR          = -.19674947E-3
MEAN_MOTION_DOT = -.30595E-3
MEAN_MOTION_DDOT = 0

CCSDS_OMM_VERS = 2.0
CREATION_DATE  = 
ORIGINATOR     = 

OBJECT_NAME    = STARLINK-36470
OBJECT_ID      = 2026-002Q
CENTER_NAME    = EARTH
REF_FRAME      = TEME
TIME_SYSTEM    = UTC
MEAN_ELEMENT_THEORY = SGP/SGP4

EPOCH          = 2026-01-22T22:00:01.999584
MEAN_MOTION    = 15.75036159
ECCENTRICITY   = .00018746
INCLINATION    = 42.9992
RA_OF_ASC_NODE = 227.4736
ARG_OF_PERICENTER = 293.7268
MEAN_ANOMALY   = 153.5077

EPHEMERIS_TYPE = 0
CLASSIFICATION_TYPE = U
NORAD_CAT_ID   = 67319
ELEMENT_SET_NO = 999
REV_AT_EPOCH   = 411
BSTAR          = -.94653943E-4
MEAN_MOTION_DOT = -.1499E-3
MEAN_MOTION_DDOT = 0

CCSDS_OMM_VERS = 2.0
CREATION_DATE  = 
ORIGINATOR     = 

OBJECT_NAME    = STARLINK-36500
OBJECT_ID      = 2026-002R
CENTER_NAME    = EARTH
REF_FRAME      = TEME
TIME_SYSTEM    = UTC
MEAN_ELEMENT_THEORY = SGP/SGP4

EPOCH          = 2026-01-22T22:00:01.999584
MEAN_MOTION    = 15.75040584
ECCENTRICITY   = .00020554
INCLINATION    = 42.9992
RA_OF_ASC_NODE = 227.4642
ARG_OF_PERICENTER = 308.2336
MEAN_ANOMALY   = 142.8432

EPHEMERIS_TYPE = 0
CLASSIFICATION_TYPE = U
NORAD_CAT_ID   = 67320
ELEMENT_SET_NO = 999
REV_AT_EPOCH   = 411
BSTAR          = -.23050334E-3
MEAN_MOTION_DOT = -.3574E-3
MEAN_MOTION_DDOT = 0

CCSDS_OMM_VERS = 2.0
CREATION_DATE  = 
ORIGINATOR     = 

OBJECT_NAME    = STARLINK-36462
OBJECT_ID      = 2026-002S
CENTER_NAME    = EARTH
REF_FRAME      = TEME
TIME_SYSTEM    = UTC
MEAN_ELEMENT_THEORY = SGP/SGP4

EPOCH          = 2026-01-22T22:00:01.999584
MEAN_MOTION    = 15.75102307
ECCENTRICITY   = .00014167
INCLINATION    = 42.9991
RA_OF_ASC_NODE = 227.4544
ARG_OF_PERICENTER = 261.3166
MEAN_ANOMALY   = 193.5645

EPHEMERIS_TYPE = 0
CLASSIFICATION_TYPE = U
NORAD_CAT_ID   = 67321
ELEMENT_SET_NO = 999
REV_AT_EPOCH   = 406
BSTAR          = -.78221008E-3
MEAN_MOTION_DOT = -.119276E-2
MEAN_MOTION_DDOT = 0

CCSDS_OMM_VERS = 2.0
CREATION_DATE  = 
ORIGINATOR     = 

OBJECT_NAME    = STARLINK-36434
OBJECT_ID      = 2026-002T
CENTER_NAME    = EARTH
REF_FRAME      = TEME
TIME_SYSTEM    = UTC
MEAN_ELEMENT_THEORY = SGP/SGP4

EPOCH          = 2026-01-22T22:00:01.999584
MEAN_MOTION    = 15.75099275
ECCENTRICITY   = .00013499
INCLINATION    = 42.9992
RA_OF_ASC_NODE = 227.4593
ARG_OF_PERICENTER = 258.3642
MEAN_ANOMALY   = 194.6021

EPHEMERIS_TYPE = 0
CLASSIFICATION_TYPE = U
NORAD_CAT_ID   = 67322
ELEMENT_SET_NO = 999
REV_AT_EPOCH   = 406
BSTAR          = -.76569959E-3
MEAN_MOTION_DOT = -.116786E-2
MEAN_MOTION_DDOT = 0

CCSDS_OMM_VERS = 2.0
CREATION_DATE  = 
ORIGINATOR     = 

OBJECT_NAME    = STARLINK-36497
OBJECT_ID      = 2026-002U
CENTER_NAME    = EARTH
REF_FRAME      = TEME
TIME_SYSTEM    = UTC
MEAN_ELEMENT_THEORY = SGP/SGP4

EPOCH          = 2026-01-22T22:00:01.999584
MEAN_MOTION    = 15.75045470
ECCENTRICITY   = .00016753
INCLINATION    = 42.9992
RA_OF_ASC_NODE = 227.4495
ARG_OF_PERICENTER = 277.5068
MEAN_ANOMALY   = 179.3112

EPHEMERIS_TYPE = 0
CLASSIFICATION_TYPE = U
NORAD_CAT_ID   = 67323
ELEMENT_SET_NO = 999
REV_AT_EPOCH   = 411
BSTAR          = -.24393768E-3
MEAN_MOTION_DOT = -.37792E-3
MEAN_MOTION_DDOT = 0

CCSDS_OMM_VERS = 2.0
CREATION_DATE  = 
ORIGINATOR     = 

OBJECT_NAME    = STARLINK-36471
OBJECT_ID      = 2026-002V
CENTER_NAME    = EARTH
REF_FRAME      = TEME
TIME_SYSTEM    = UTC
MEAN_ELEMENT_THEORY = SGP/SGP4

EPOCH          = 2026-01-22T20:03:12.304512
MEAN_MOTION    = 15.75176784
ECCENTRICITY   = .00016699
INCLINATION    = 42.9979
RA_OF_ASC_NODE = 227.9294
ARG_OF_PERICENTER = 259.8261
MEAN_ANOMALY   = 100.2420

EPHEMERIS_TYPE = 0
CLASSIFICATION_TYPE = U
NORAD_CAT_ID   = 67324
ELEMENT_SET_NO = 999
REV_AT_EPOCH   = 402
BSTAR          = .11568223E-2
MEAN_MOTION_DOT = .182204E-2
MEAN_MOTION_DDOT = 0

CCSDS_OMM_VERS = 2.0
CREATION_DATE  = 
ORIGINATOR     = 

OBJECT_NAME    = STARLINK-36473
OBJECT_ID      = 2026-002W
CENTER_NAME    = EARTH
REF_FRAME      = TEME
TIME_SYSTEM    = UTC
MEAN_ELEMENT_THEORY = SGP/SGP4

EPOCH          = 2026-01-22T23:06:19.690560
MEAN_MOTION    = 15.75202465
ECCENTRICITY   = .00017883
INCLINATION    = 42.9982
RA_OF_ASC_NODE = 227.1630
ARG_OF_PERICENTER = 301.3784
MEAN_ANOMALY   = 58.6910

EPHEMERIS_TYPE = 0
CLASSIFICATION_TYPE = U
NORAD_CAT_ID   = 67325
ELEMENT_SET_NO = 999
REV_AT_EPOCH   = 420
BSTAR          = .22519158E-2
MEAN_MOTION_DOT = .363342E-2
MEAN_MOTION_DDOT = 0

CCSDS_OMM_VERS = 2.0
CREATION_DATE  = 
ORIGINATOR     = 

OBJECT_NAME    = STARLINK-36430
OBJECT_ID      = 2026-002X
CENTER_NAME    = EARTH
REF_FRAME      = TEME
TIME_SYSTEM    = UTC
MEAN_ELEMENT_THEORY = SGP/SGP4

EPOCH          = 2026-01-22T23:04:51.432096
MEAN_MOTION    = 15.75162985
ECCENTRICITY   = .00024044
INCLINATION    = 42.9981
RA_OF_ASC_NODE = 227.1534
ARG_OF_PERICENTER = 260.7762
MEAN_ANOMALY   = 99.2835

EPHEMERIS_TYPE = 0
CLASSIFICATION_TYPE = U
NORAD_CAT_ID   = 67326
ELEMENT_SET_NO = 999
REV_AT_EPOCH   = 420
BSTAR          = .14137501E-2
MEAN_MOTION_DOT = .223762E-2
MEAN_MOTION_DDOT = 0

CCSDS_OMM_VERS = 2.0
CREATION_DATE  = 
ORIGINATOR     = 

OBJECT_NAME    = STARLINK-36501
OBJECT_ID      = 2026-002Y
CENTER_NAME    = EARTH
REF_FRAME      = TEME
TIME_SYSTEM    = UTC
MEAN_ELEMENT_THEORY = SGP/SGP4

EPOCH          = 2026-01-22T23:05:20.542848
MEAN_MOTION    = 15.75172242
ECCENTRICITY   = .00028954
INCLINATION    = 42.9980
RA_OF_ASC_NODE = 227.1573
ARG_OF_PERICENTER = 258.8626
MEAN_ANOMALY   = 101.1918

EPHEMERIS_TYPE = 0
CLASSIFICATION_TYPE = U
NORAD_CAT_ID   = 67327
ELEMENT_SET_NO = 999
REV_AT_EPOCH   = 404
BSTAR          = .14307729E-2
MEAN_MOTION_DOT = .226641E-2
MEAN_MOTION_DDOT = 0

CCSDS_OMM_VERS = 2.0
CREATION_DATE  = 
ORIGINATOR     = 

OBJECT_NAME    = STARLINK-36489
OBJECT_ID      = 2026-002Z
CENTER_NAME    = EARTH
REF_FRAME      = TEME
TIME_SYSTEM    = UTC
MEAN_ELEMENT_THEORY = SGP/SGP4

EPOCH          = 2026-01-22T23:04:22.088928
MEAN_MOTION    = 15.75166918
ECCENTRICITY   = .00025182
INCLINATION    = 42.9982
RA_OF_ASC_NODE = 227.1517
ARG_OF_PERICENTER = 262.2198
MEAN_ANOMALY   = 97.8385

EPHEMERIS_TYPE = 0
CLASSIFICATION_TYPE = U
NORAD_CAT_ID   = 67328
ELEMENT_SET_NO = 999
REV_AT_EPOCH   = 420
BSTAR          = .13381547E-2
MEAN_MOTION_DOT = .211499E-2
MEAN_MOTION_DDOT = 0

CCSDS_OMM_VERS = 2.0
CREATION_DATE  = 
ORIGINATOR     = 

OBJECT_NAME    = STARLINK-36496
OBJECT_ID      = 2026-002AA
CENTER_NAME    = EARTH
REF_FRAME      = TEME
TIME_SYSTEM    = UTC
MEAN_ELEMENT_THEORY = SGP/SGP4

EPOCH          = 2026-01-22T20:00:46.390464
MEAN_MOTION    = 15.75166549
ECCENTRICITY   = .00016514
INCLINATION    = 42.9986
RA_OF_ASC_NODE = 227.9144
ARG_OF_PERICENTER = 255.5455
MEAN_ANOMALY   = 104.5231

EPHEMERIS_TYPE = 0
CLASSIFICATION_TYPE = U
NORAD_CAT_ID   = 67329
ELEMENT_SET_NO = 999
REV_AT_EPOCH   = 400
BSTAR          = .10194467E-2
MEAN_MOTION_DOT = .160013E-2
MEAN_MOTION_DDOT = 0

