STARLINK-36498          
1 67318U 26002P   26022.91668981 -.00030595  00000+0 -19675-3 0  9999
2 67318  42.9991 227.4681 0001840 266.9828 182.1678 15.75041341  4115
STARLINK-36470          
1 67319U 26002Q   26022.91668981 -.00014990  00000+0 -94654-4 0  9992
2 67319  42.9992 227.4736 0001874 293.7268 153.5077 15.75036159  4117
STARLINK-36500          
1 67320U 26002R   26022.91668981 -.00035740  00000+0 -23050-3 0  9991
2 67320  42.9992 227.4642 0002055 308.2336 142.8432 15.75040584  4118
STARLINK-36462          
1 67321U 26002S   26022.91668981 -.00119276  00000+0 -78221-3 0  9999
2 67321  42.9991 227.4544 0001416 261.3166 193.5645 15.75102307  4064
STARLINK-36434          
1 67322U 26002T   26022.91668981 -.00116786  00000+0 -76570-3 0  9998
2 67322  42.9992 227.4593 0001349 258.3642 194.6021 15.75099275  4069
STARLINK-36497          
1 67323U 26002U   26022.91668981 -.00037792  00000+0 -24394-3 0  9995
2 67323  42.9992 227.4495 0001675 277.5068 179.3112 15.75045470  4113
STARLINK-36471          
1 67324U 26002V   26022.83555908  .00182204  00000+0  11568-2 0  9996
2 67324  42.9979 227.9294 0001669 259.8261 100.2420 15.75176784  4020
STARLINK-36473          
1 67325U 26002W   26022.96272790  .00363342  00000+0  22519-2 0  9998
2 67325  42.9982 227.1630 0001788 301.3784  58.6910 15.75202465  4202
STARLINK-36430          
1 67326U 26002X   26022.96170639  .00223762  00000+0  14138-2 0  9997
2 67326  42.9981 227.1534 0002404 260.7762  99.2835 15.75162985  4204
STARLINK-36501          
1 67327U 26002Y   26022.96204332  .00226641  00000+0  14308-2 0  9994
2 67327  42.9980 227.1573 0002895 258.8626 101.1918 15.75172242  4042
STARLINK-36489          
1 67328U 26002Z   26022.96136677  .00211499  00000+0  13382-2 0  9997
2 67328  42.9982 227.1517 0002518 262.2198  97.8385 15.75166918  4208
STARLINK-36496          
1 67329U 26002AA  26022.83387026  .00160013  00000+0  10194-2 0  9993
2 67329  42.9986 227.9144 0001651 255.5455 104.5231 15.75166549  4009
